#aV2023  4 13  0  0  0.00000000     288 DD+AD WGS84 FIT  NGA
## 2257 345600.00000000   300.00000000 60047 0.0000000000000
+   32     1  2  3  4  5  6  7  8  9 10 11 12 13 14 15 16 17
+         18 19 20 21 22 23 24 25 26 27 28 29 30 31 32  0  0
+          0  0  0  0  0  0  0  0  0  0  0  0  0  0  0  0  0
+          0  0  0  0  0  0  0  0  0  0  0  0  0  0  0  0  0
+          0  0  0  0  0  0  0  0  0  0  0  0  0  0  0  0  0
++         2  2  2  2  2  2  2  2  2  2  2  2  2  2  2  2  2
++         2  2  2  2  2  2  2  2  2  2  2  2  2  2  2  0  0
++         0  0  0  0  0  0  0  0  0  0  0  0  0  0  0  0  0
++         0  0  0  0  0  0  0  0  0  0  0  0  0  0  0  0  0
++         0  0  0  0  0  0  0  0  0  0  0  0  0  0  0  0  0
%c cc cc ccc ccc cccc cccc cccc cccc ccccc ccccc ccccc ccccc
%c cc cc ccc ccc cccc cccc cccc cccc ccccc ccccc ccccc ccccc
%f  0.0000000  0.000000000  0.00000000000  0.000000000000000
%f  0.0000000  0.000000000  0.00000000000  0.000000000000000
%i    0    0    0    0      0      0      0      0         0
%i    0    0    0    0      0      0      0      0         0
/*      NGA, ST. LOUIS,MO.                                  
/*   EPHEMERIS COMPUTED FROM 2 DAYS OF DATA                 
/*   EPOCHA v8 SMOOTHER                                     
/*   G2139 IERS2010 SATIGS SATAPC                           
*  2023  4 13 15 55  0.00000000
P  1  14174.505873 -21734.495735   4358.217071    193.639199                    
V  1   -748.894485   6332.146295  31989.508257     -0.033159                    
P  2  -5924.721787  25619.586395   5412.471828   -606.382844                    
V  2  -4257.313791   4899.561307 -30750.963163      0.036528                    
P  3  16033.543682 -12665.930840 -17029.338390   -330.006628                    
V  3  21437.682592    -82.508874  20511.102226      0.088306                    
P  4   5885.492930 -16587.948728 -19844.672071     15.950914                    
V  4  14476.930513  20727.624537 -13134.128860      0.092059                    
P  5 -25981.571184   5026.299865   2761.352460   -123.261665                    
V  5  -3979.653607  -2115.771598 -31519.851338     -0.014538                    
P  6  -9594.015537 -12332.428978 -21397.410536    586.681275                    
V  6  12570.409295 -24194.453195   8378.963671      0.013378                    
P  7   4534.423002 -24383.404457   9240.307123    202.187039                    
V  7   7750.376714  -8770.678774 -28805.547439     -0.084868                    
P  8  14766.892005  -5206.460818  21427.697762   -117.574324                    
V  8  15703.710744  22367.568372  -4983.188805     -0.018529                    
P  9  -4252.027090 -22471.534102 -13538.018529   -180.802010                    
V  9  11828.190013  12575.349607 -24759.635210      0.079272                    
P 10  15098.628263  11583.986076  18835.039113    -32.674252                    
V 10 -23251.084117   2743.814600  16812.373070     -0.016270                    
P 11 -17116.617482   2179.074078 -20174.838332   -161.288939                    
V 11  11407.463693 -22976.163264 -12187.383507     -0.125917                    
P 12 -18769.489630  10832.668223 -15574.793703   -363.467649                    
V 12 -19304.237364  -1790.431722  22513.230625     -0.046365                    
P 13 -17010.620910  -3483.208014  19981.910374    505.190391                    
V 13 -10514.407388 -23443.297469 -12728.745764      0.056057                    
P 14 -11846.403258 -13551.961076  19583.365976     24.010064                    
V 14  24771.667552  -2299.255511  13258.794951      0.115108                    
P 15 -14025.659353   7556.863551  20824.225679     30.290227                    
V 15 -18178.023781 -20749.502754  -4349.648268      0.034164                    
P 16  26805.446481    336.385903     94.810858   -509.092627                    
V 16    450.581348   2294.811484 -31559.208833      0.027330                    
P 17 -12983.156541 -23100.720261    880.260350    710.390430                    
V 17   2424.433786   -736.310170  32104.587188      0.017775                    
P 18  -2609.795755  23401.463848  12141.366223   -222.523603                    
V 18  -8866.143555  12827.557633 -26771.430212     -0.166403                    
P 19 -16966.922817 -18591.948497  -9150.633796    303.152604                    
V 19  -3575.199444 -10781.344757  28986.063495      0.051021                    
P 20 -25400.630650    806.639734  -7328.994249    439.260838                    
V 20   8385.606399  -5359.675976 -29704.299974     -0.021561                    
P 21  16281.049180 -15682.105170  13781.199337    154.230623                    
V 21  -3610.041871  16724.623533  25127.321769     -0.001258                    
P 22  17863.521695  16140.400206 -10948.671977    463.441476                    
V 22   5052.242824  13822.977319  27340.467666      0.068602                    
P 23   1988.689034  14821.934031  21956.356934     16.603822                    
V 23 -27683.031140   2820.881537    459.410985      0.025674                    
P 24 -14581.667944  19919.062249   8867.698007   -150.289965                    
V 24    742.971195 -12473.854375  28542.548967     -0.146427                    
P 25  -7498.434733  15321.980540 -20608.517831    435.311693                    
V 25 -25555.516268   1095.796900  10537.769973      0.028785                    
P 26  23122.107215   5821.728223 -12165.704302    241.757285                    
V 26 -14671.815371   4823.952402 -25483.203923     -0.002184                    
P 27  19010.658640   6789.149478  17227.116620     59.774299                    
V 27  11353.788419  19107.392583 -19369.933357     -0.084665                    
P 28   9315.200102  14206.354623 -20444.972803     64.246453                    
V 28 -11325.746904  23307.564338  11043.520347      0.065186                    
P 29   -722.665121  20924.681202 -16342.673337   -595.350785                    
V 29 -11646.710970 -17128.365696 -21565.059417     -0.016703                    
P 30  -4972.671326 -19215.804768  17627.158953   -522.549928                    
V 30  11869.139532 -19071.656272 -17811.427713      0.018373                    
P 31  14053.249589   6399.026094 -21794.983869   -213.881573                    
V 31 -12534.746376  24217.848967   -542.698872     -0.008642                    
P 32  16123.384175  21159.026475  -1728.851576   -450.482458                    
V 32   -855.085893   3506.524678  31490.997727     -0.101060                    
EOF
